start=new Date('2022-03-28T00:00:00.000Z').valueOf();
sats=[{"EPHEMERIS_TYPE":"0","SITE":"AFETR","APOAPSIS":"445.503","MEAN_MOTION_DDOT":"0.0000000000000","BSTAR":"0.00014044000000","DECAY_DATE":null,"TLE_LINE1":"1 46745U 20074G   22086.87219874  .00005710  00000-0  14044-3 0  9992","TLE_LINE2":"2 46745  53.0554 285.0104 0008533 287.2585  72.7486 15.42177902 79688","MEAN_ANOMALY":"72.7486","SEMIMAJOR_AXIS":"6817.820","LAUNCH_DATE":"2020-10-24","OBJECT_TYPE":"PAYLOAD","ARG_OF_PERICENTER":"287.2585","FILE":"3377053","OBJECT_ID":"2020-074G","EPOCH":"2022-03-27T20:55:57.971136","RCS_SIZE":"LARGE","NORAD_CAT_ID":"46745","TIME_SYSTEM":"UTC","MEAN_MOTION_DOT":"0.00005710","ELEMENT_SET_NO":"999","MEAN_ELEMENT_THEORY":"SGP4","PERIOD":"93.374","PERIAPSIS":"433.867","RA_OF_ASC_NODE":"285.0104","ECCENTRICITY":"0.00085330","REF_FRAME":"TEME","OBJECT_NAME":"STARLINK-1898","REV_AT_EPOCH":"7968","MEAN_MOTION":"15.42177902","GP_ID":"199861998","INCLINATION":"53.0554","COUNTRY_CODE":"US","CENTER_NAME":"EARTH","CLASSIFICATION_TYPE":"U"},{"OBJECT_ID":"2020-074H","EPOCH":"2022-03-27T21:56:52.773216","RCS_SIZE":"LARGE","NORAD_CAT_ID":"46746","TIME_SYSTEM":"UTC","LAUNCH_DATE":"2020-10-24","OBJECT_TYPE":"PAYLOAD","ARG_OF_PERICENTER":"57.8444","FILE":"3377053","MEAN_MOTION_DDOT":"0.0000000000000","BSTAR":"0.00007572700000","DECAY_DATE":null,"MEAN_ANOMALY":"302.2686","TLE_LINE2":"2 46746  53.0564 318.4896 0001449  57.8444 302.2686 15.06399611 79218","TLE_LINE1":"1 46746U 20074H   22086.91449969  .00000847  00000-0  75727-4 0  9990","SEMIMAJOR_AXIS":"6925.350","EPHEMERIS_TYPE":"0","SITE":"AFETR","APOAPSIS":"548.218","CLASSIFICATION_TYPE":"U","MEAN_MOTION":"15.06399611","GP_ID":"199862248","INCLINATION":"53.0564","CENTER_NAME":"EARTH","COUNTRY_CODE":"US","MEAN_MOTION_DOT":"0.00000847","ELEMENT_SET_NO":"999","MEAN_ELEMENT_THEORY":"SGP4","PERIOD":"95.592","PERIAPSIS":"546.211","REF_FRAME":"TEME","RA_OF_ASC_NODE":"318.4896","ECCENTRICITY":"0.00014490","OBJECT_NAME":"STARLINK-1905","REV_AT_EPOCH":"7921"},{"CLASSIFICATION_TYPE":"U","INCLINATION":"53.0565","MEAN_MOTION":"15.06397918","GP_ID":"199863499","CENTER_NAME":"EARTH","COUNTRY_CODE":"US","ELEMENT_SET_NO":"999","PERIOD":"95.592","MEAN_ELEMENT_THEORY":"SGP4","MEAN_MOTION_DOT":"0.00001721","PERIAPSIS":"546.165","RA_OF_ASC_NODE":"318.5680","ECCENTRICITY":"0.00015230","REF_FRAME":"TEME","REV_AT_EPOCH":"7921","OBJECT_NAME":"STARLINK-1908","OBJECT_ID":"2020-074J","NORAD_CAT_ID":"46747","TIME_SYSTEM":"UTC","RCS_SIZE":"LARGE","EPOCH":"2022-03-27T21:30:20.726208","OBJECT_TYPE":"PAYLOAD","LAUNCH_DATE":"2020-10-24","FILE":"3377053","ARG_OF_PERICENTER":"68.9860","MEAN_MOTION_DDOT":"0.0000000000000","TLE_LINE2":"2 46747  53.0565 318.5680 0001523  68.9860 291.1292 15.06397918 79217","TLE_LINE1":"1 46747U 20074J   22086.89607322  .00001721  00000-0  13441-3 0  9993","MEAN_ANOMALY":"291.1292","SEMIMAJOR_AXIS":"6925.355","BSTAR":"0.00013441000000","DECAY_DATE":null,"EPHEMERIS_TYPE":"0","APOAPSIS":"548.275","SITE":"AFETR"},{"CLASSIFICATION_TYPE":"U","MEAN_MOTION":"15.06397872","GP_ID":"199863736","INCLINATION":"53.0560","CENTER_NAME":"EARTH","COUNTRY_CODE":"US","MEAN_MOTION_DOT":"0.00001463","ELEMENT_SET_NO":"999","MEAN_ELEMENT_THEORY":"SGP4","PERIOD":"95.592","PERIAPSIS":"546.214","RA_OF_ASC_NODE":"318.5448","REF_FRAME":"TEME","ECCENTRICITY":"0.00014530","REV_AT_EPOCH":"7921","OBJECT_NAME":"STARLINK-1910","OBJECT_ID":"2020-074K","EPOCH":"2022-03-27T21:40:57.209088","RCS_SIZE":"LARGE","NORAD_CAT_ID":"46748","TIME_SYSTEM":"UTC","LAUNCH_DATE":"2020-10-24","OBJECT_TYPE":"PAYLOAD","FILE":"3377053","ARG_OF_PERICENTER":"63.1491","MEAN_MOTION_DDOT":"0.0000000000000","BSTAR":"0.00011711000000","DECAY_DATE":null,"TLE_LINE2":"2 46748  53.0560 318.5448 0001453  63.1491 296.9647 15.06397872 79210","TLE_LINE1":"1 46748U 20074K   22086.90343992  .00001463  00000-0  11711-3 0  9997","MEAN_ANOMALY":"296.9647","SEMIMAJOR_AXIS":"6925.355","EPHEMERIS_TYPE":"0","SITE":"AFETR","APOAPSIS":"548.226"},{"CLASSIFICATION_TYPE":"U","INCLINATION":"53.0569","GP_ID":"199862498","MEAN_MOTION":"15.06397409","COUNTRY_CODE":"US","CENTER_NAME":"EARTH","PERIOD":"95.592","MEAN_ELEMENT_THEORY":"SGP4","ELEMENT_SET_NO":"999","MEAN_MOTION_DOT":"0.00000904","REV_AT_EPOCH":"7921","OBJECT_NAME":"STARLINK-1911","REF_FRAME":"TEME","PERIAPSIS":"546.116","RA_OF_ASC_NODE":"318.5146","ECCENTRICITY":"0.00015970","OBJECT_ID":"2020-074L","TIME_SYSTEM":"UTC","NORAD_CAT_ID":"46749","EPOCH":"2022-03-27T21:51:34.753824","RCS_SIZE":"LARGE","OBJECT_TYPE":"PAYLOAD","LAUNCH_DATE":"2020-10-24","FILE":"3377053","ARG_OF_PERICENTER":"73.8622","MEAN_MOTION_DDOT":"0.0000000000000","SEMIMAJOR_AXIS":"6925.356","TLE_LINE2":"2 46749  53.0569 318.5146 0001597  73.8622 286.2542 15.06397409 79210","MEAN_ANOMALY":"286.2542","TLE_LINE1":"1 46749U 20074L   22086.91081891  .00000904  00000-0  79606-4 0  9993","DECAY_DATE":null,"BSTAR":"0.00007960600000","EPHEMERIS_TYPE":"0","APOAPSIS":"548.327","SITE":"AFETR"},{"BSTAR":"0.00083604000000","DECAY_DATE":null,"TLE_LINE1":"1 46751U 20074N   22086.90713633  .00012195  00000-0  83604-3 0  9998","TLE_LINE2":"2 46751  53.0547 318.5246 0001577  70.6059 289.5101 15.06406408 79214","MEAN_ANOMALY":"289.5101","SEMIMAJOR_AXIS":"6925.329","MEAN_MOTION_DDOT":"0.0000000000000","SITE":"AFETR","APOAPSIS":"548.286","EPHEMERIS_TYPE":"0","EPOCH":"2022-03-27T21:46:16.578912","RCS_SIZE":"LARGE","NORAD_CAT_ID":"46751","TIME_SYSTEM":"UTC","OBJECT_ID":"2020-074N","ARG_OF_PERICENTER":"70.6059","FILE":"3377053","LAUNCH_DATE":"2020-10-24","OBJECT_TYPE":"PAYLOAD","COUNTRY_CODE":"US","CENTER_NAME":"EARTH","MEAN_MOTION":"15.06406408","GP_ID":"199862748","INCLINATION":"53.0547","PERIAPSIS":"546.102","RA_OF_ASC_NODE":"318.5246","REF_FRAME":"TEME","ECCENTRICITY":"0.00015770","REV_AT_EPOCH":"7921","OBJECT_NAME":"STARLINK-1920","MEAN_MOTION_DOT":"0.00012195","ELEMENT_SET_NO":"999","PERIOD":"95.592","MEAN_ELEMENT_THEORY":"SGP4","CLASSIFICATION_TYPE":"U"},{"RCS_SIZE":"LARGE","EPOCH":"2022-03-27T22:02:11.180544","TIME_SYSTEM":"UTC","NORAD_CAT_ID":"46752","OBJECT_ID":"2020-074P","ARG_OF_PERICENTER":"62.3171","FILE":"3377053","LAUNCH_DATE":"2020-10-24","OBJECT_TYPE":"PAYLOAD","DECAY_DATE":null,"BSTAR":"0.00018625000000","SEMIMAJOR_AXIS":"6925.340","MEAN_ANOMALY":"297.7997","TLE_LINE2":"2 46752  53.0538 318.4654 0001768  62.3171 297.7997 15.06402843 79215","TLE_LINE1":"1 46752U 20074P   22086.91818496  .00002494  00000-0  18625-3 0  9995","MEAN_MOTION_DDOT":"0.0000000000000","SITE":"AFETR","APOAPSIS":"548.429","EPHEMERIS_TYPE":"0","CLASSIFICATION_TYPE":"U","COUNTRY_CODE":"US","CENTER_NAME":"EARTH","GP_ID":"199863000","MEAN_MOTION":"15.06402843","INCLINATION":"53.0538","REV_AT_EPOCH":"7921","OBJECT_NAME":"STARLINK-1921","ECCENTRICITY":"0.00017680","PERIAPSIS":"545.980","RA_OF_ASC_NODE":"318.4654","REF_FRAME":"TEME","MEAN_MOTION_DOT":"0.00002494","PERIOD":"95.592","MEAN_ELEMENT_THEORY":"SGP4","ELEMENT_SET_NO":"999"},{"BSTAR":"0.00027214000000","DECAY_DATE":null,"TLE_LINE2":"2 46753  53.0548 318.6143 0001672  73.5392 286.5780 15.06401913 79218","MEAN_ANOMALY":"286.5780","TLE_LINE1":"1 46753U 20074Q   22086.88501943  .00003774  00000-0  27214-3 0  9994","SEMIMAJOR_AXIS":"6925.343","MEAN_MOTION_DDOT":"0.0000000000000","APOAPSIS":"548.366","SITE":"AFETR","EPHEMERIS_TYPE":"0","EPOCH":"2022-03-27T21:14:25.678752","RCS_SIZE":"LARGE","NORAD_CAT_ID":"46753","TIME_SYSTEM":"UTC","OBJECT_ID":"2020-074Q","ARG_OF_PERICENTER":"73.5392","FILE":"3377053","LAUNCH_DATE":"2020-10-24","OBJECT_TYPE":"PAYLOAD","CENTER_NAME":"EARTH","COUNTRY_CODE":"US","MEAN_MOTION":"15.06401913","GP_ID":"199863237","INCLINATION":"53.0548","RA_OF_ASC_NODE":"318.6143","PERIAPSIS":"546.050","REF_FRAME":"TEME","ECCENTRICITY":"0.00016720","REV_AT_EPOCH":"7921","OBJECT_NAME":"STARLINK-1922","MEAN_MOTION_DOT":"0.00003774","ELEMENT_SET_NO":"999","PERIOD":"95.592","MEAN_ELEMENT_THEORY":"SGP4","CLASSIFICATION_TYPE":"U"},{"NORAD_CAT_ID":"46754","TIME_SYSTEM":"UTC","EPOCH":"2022-03-27T21:25:01.625088","RCS_SIZE":"LARGE","OBJECT_ID":"2020-074R","FILE":"3377053","ARG_OF_PERICENTER":"71.6158","OBJECT_TYPE":"PAYLOAD","LAUNCH_DATE":"2020-10-24","MEAN_ANOMALY":"288.5000","TLE_LINE2":"2 46754  53.0552 318.5802 0001551  71.6158 288.5000 15.06404133 79214","TLE_LINE1":"1 46754U 20074R   22086.89237992  .00002033  00000-0  15532-3 0  9993","SEMIMAJOR_AXIS":"6925.336","BSTAR":"0.00015532000000","DECAY_DATE":null,"MEAN_MOTION_DDOT":"0.0000000000000","APOAPSIS":"548.275","SITE":"AFETR","EPHEMERIS_TYPE":"0","CLASSIFICATION_TYPE":"U","CENTER_NAME":"EARTH","COUNTRY_CODE":"US","INCLINATION":"53.0552","MEAN_MOTION":"15.06404133","GP_ID":"199861999","PERIAPSIS":"546.127","REF_FRAME":"TEME","RA_OF_ASC_NODE":"318.5802","ECCENTRICITY":"0.00015510","REV_AT_EPOCH":"7921","OBJECT_NAME":"STARLINK-1923","ELEMENT_SET_NO":"999","MEAN_ELEMENT_THEORY":"SGP4","PERIOD":"95.592","MEAN_MOTION_DOT":"0.00002033"},{"CLASSIFICATION_TYPE":"U","GP_ID":"199862249","MEAN_MOTION":"15.06398177","INCLINATION":"53.0546","COUNTRY_CODE":"US","CENTER_NAME":"EARTH","MEAN_MOTION_DOT":"0.00001141","PERIOD":"95.592","MEAN_ELEMENT_THEORY":"SGP4","ELEMENT_SET_NO":"999","REV_AT_EPOCH":"7914","OBJECT_NAME":"STARLINK-1924","RA_OF_ASC_NODE":"323.5607","PERIAPSIS":"546.074","ECCENTRICITY":"0.00016530","REF_FRAME":"TEME","OBJECT_ID":"2020-074S","RCS_SIZE":"LARGE","EPOCH":"2022-03-27T21:32:20.079168","TIME_SYSTEM":"UTC","NORAD_CAT_ID":"46755","LAUNCH_DATE":"2020-10-24","OBJECT_TYPE":"PAYLOAD","FILE":"3377053","ARG_OF_PERICENTER":"56.2027","MEAN_MOTION_DDOT":"0.0000000000000","DECAY_DATE":null,"BSTAR":"0.00009549000000","SEMIMAJOR_AXIS":"6925.354","MEAN_ANOMALY":"303.9119","TLE_LINE2":"2 46755  53.0546 323.5607 0001653  56.2027 303.9119 15.06398177 79149","TLE_LINE1":"1 46755U 20074S   22086.89745462  .00001141  00000-0  95490-4 0  9991","EPHEMERIS_TYPE":"0","APOAPSIS":"548.364","SITE":"AFETR"}];
